[{"OBJECT_NAME":"STARLINK-35310","OBJECT_ID":"2025-243G","EPOCH":"2026-03-09T17:05:49.110144","MEAN_MOTION":15.30197414,"ECCENTRICITY":8.497e-5,"INCLINATION":53.1576,"RA_OF_ASC_NODE":245.4025,"ARG_OF_PERICENTER":101.4855,"MEAN_ANOMALY":258.6242,"EPHEMERIS_TYPE":0,"CLASSIFICATION_TYPE":"U","NORAD_CAT_ID":66183,"ELEMENT_SET_NO":999,"REV_AT_EPOCH":2065,"BSTAR":0.00054925569,"MEAN_MOTION_DOT":0.00015942,"MEAN_MOTION_DDOT":0},{"OBJECT_NAME":"CZ-4C R\/B","OBJECT_ID":"2024-089B","EPOCH":"2026-03-09T16:45:24.409152","MEAN_MOTION":15.30115456,"ECCENTRICITY":0.00763424,"INCLINATION":97.7122,"RA_OF_ASC_NODE":107.3872,"ARG_OF_PERICENTER":235.0262,"MEAN_ANOMALY":124.3793,"EPHEMERIS_TYPE":0,"CLASSIFICATION_TYPE":"U","NORAD_CAT_ID":59729,"ELEMENT_SET_NO":999,"REV_AT_EPOCH":10143,"BSTAR":0.00030010198,"MEAN_MOTION_DOT":9.476e-5,"MEAN_MOTION_DDOT":0}]
